[{"OBJECT_NAME":"ONEWEB-0268","OBJECT_ID":"2021-060V","EPOCH":"2026-03-09T22:23:37.282560","MEAN_MOTION":13.16593671,"ECCENTRICITY":0.00015606,"INCLINATION":87.9003,"RA_OF_ASC_NODE":248.5218,"ARG_OF_PERICENTER":97.4366,"MEAN_ANOMALY":262.6943,"EPHEMERIS_TYPE":0,"CLASSIFICATION_TYPE":"U","NORAD_CAT_ID":48986,"ELEMENT_SET_NO":999,"REV_AT_EPOCH":22679,"BSTAR":1.8319038e-5,"MEAN_MOTION_DOT":2.0e-7,"MEAN_MOTION_DDOT":0},{"OBJECT_NAME":"SL-14 DEB","OBJECT_ID":"1991-056BN","EPOCH":"2026-03-08T15:37:46.529472","MEAN_MOTION":13.20996142,"ECCENTRICITY":0.00237571,"INCLINATION":82.548,"RA_OF_ASC_NODE":198.6076,"ARG_OF_PERICENTER":313.4595,"MEAN_ANOMALY":46.4553,"EPHEMERIS_TYPE":0,"CLASSIFICATION_TYPE":"U","NORAD_CAT_ID":45324,"ELEMENT_SET_NO":999,"REV_AT_EPOCH":29224,"BSTAR":0.00055646869,"MEAN_MOTION_DOT":2.4e-6,"MEAN_MOTION_DDOT":0}]
